{"type": "FeatureCollection", "features": [{"type": "Feature", "properties": {"preset": "120", "distance_m": 3656, "duration_s": 2929, "source": "OSRM foot profile, routing.openstreetmap.de; \u00a9 OpenStreetMap contributors (ODbL)", "stop_order": ["david-lean", "american-assassin", "heads-of-state-sgw", "made-in-dagenham", "fairfield-halls", "criminal-bourne", "heads-of-state-apollo", "peep-show-canterbury", "dark-knight-rises", "terry-and-june", "opalite", "girl-group", "it-crowd", "heads-of-state-overtons", "heads-of-state-carpark", "matthews-yard", "konga", "finale"]}, "geometry": {"coordinates": [[-0.09901, 51.372374], [-0.098903, 51.372374], [-0.098532, 51.372374], [-0.098532, 51.372642], [-0.098535, 51.372746], [-0.098541, 51.3729], [-0.098541, 51.372902], [-0.098544, 51.373], [-0.09855, 51.373128], [-0.098563, 51.373198], [-0.098567, 51.37321], [-0.098563, 51.373198], [-0.09855, 51.373128], [-0.098544, 51.373], [-0.098482, 51.373], [-0.098429, 51.373016], [-0.097729, 51.373117], [-0.097371, 51.373168], [-0.097063, 51.373213], [-0.097021, 51.373219], [-0.096964, 51.373226], [-0.096907, 51.373227], [-0.096863, 51.373227], [-0.096868, 51.372867], [-0.096871, 51.37282], [-0.096877, 51.372705], [-0.096895, 51.372684], [-0.096908, 51.372705], [-0.096908, 51.372777], [-0.096907, 51.372795], [-0.096263, 51.372804], [-0.096159, 51.372815], [-0.096189, 51.372926], [-0.096298, 51.372915], [-0.096321, 51.372915], [-0.096321, 51.372971], [-0.09622, 51.373034], [-0.096154, 51.373041], [-0.096107, 51.373045], [-0.09606, 51.37305], [-0.096027, 51.373054], [-0.09606, 51.37305], [-0.096107, 51.373045], [-0.096154, 51.373041], [-0.096281, 51.373686], [-0.096291, 51.373725], [-0.0963, 51.373762], [-0.096302, 51.373773], [-0.096363, 51.373778], [-0.096422, 51.373805], [-0.096447, 51.373828], [-0.096516, 51.374015], [-0.09652, 51.374041], [-0.09655, 51.374064], [-0.096572, 51.374093], [-0.096589, 51.374114], [-0.096596, 51.374136], [-0.096564, 51.37414], [-0.09657, 51.374158], [-0.096575, 51.374178], [-0.096587, 51.374219], [-0.096592, 51.374236], [-0.096666, 51.374284], [-0.09665, 51.374299], [-0.096628, 51.37432], [-0.09661, 51.374338], [-0.096589, 51.374357], [-0.096637, 51.374386], [-0.096677, 51.374423], [-0.096705, 51.374461], [-0.096903, 51.374731], [-0.09695, 51.37478], [-0.097319, 51.375294], [-0.097346, 51.375351], [-0.097385, 51.375376], [-0.097622, 51.375695], [-0.09762, 51.37573], [-0.09774, 51.3759], [-0.09776, 51.375942], [-0.097764, 51.375949], [-0.09796, 51.376213], [-0.098002, 51.376251], [-0.098029, 51.376275], [-0.098051, 51.376293], [-0.098105, 51.376355], [-0.098131, 51.376366], [-0.098187, 51.376388], [-0.098197, 51.376393], [-0.098236, 51.37641], [-0.098318, 51.376511], [-0.098392, 51.376608], [-0.098447, 51.376679], [-0.098885, 51.377283], [-0.098949, 51.377383], [-0.098957, 51.377425], [-0.098954, 51.377443], [-0.09895, 51.377455], [-0.098941, 51.37747], [-0.098928, 51.377484], [-0.098909, 51.377498], [-0.098883, 51.377515], [-0.098869, 51.377523], [-0.09885, 51.377532], [-0.098835, 51.377537], [-0.098814, 51.377544], [-0.098639, 51.377593], [-0.098323, 51.377684], [-0.098126, 51.377744], [-0.098087, 51.377687], [-0.097923, 51.377447], [-0.098153, 51.377386], [-0.09803, 51.377207], [-0.098153, 51.377386], [-0.097923, 51.377447], [-0.098087, 51.377687], [-0.098126, 51.377744], [-0.097717, 51.377863], [-0.098126, 51.377744], [-0.098323, 51.377684], [-0.098639, 51.377593], [-0.098814, 51.377544], [-0.098835, 51.377537], [-0.09885, 51.377532], [-0.098869, 51.377523], [-0.098883, 51.377515], [-0.098909, 51.377498], [-0.098928, 51.377484], [-0.098941, 51.37747], [-0.09895, 51.377455], [-0.098954, 51.377443], [-0.098957, 51.377425], [-0.098949, 51.377383], [-0.098988, 51.377418], [-0.099124, 51.377597], [-0.099283, 51.377803], [-0.099335, 51.377874], [-0.099375, 51.377939], [-0.099413, 51.378002], [-0.099444, 51.378059], [-0.099505, 51.378178], [-0.099569, 51.37831], [-0.099621, 51.378419], [-0.099637, 51.378464], [-0.099716, 51.378441], [-0.099777, 51.378427], [-0.099882, 51.378397], [-0.099908, 51.378489], [-0.099971, 51.378697], [-0.100011, 51.378851], [-0.100022, 51.37891], [-0.100029, 51.378962], [-0.100034, 51.379018], [-0.100037, 51.379079], [-0.100034, 51.379018], [-0.100029, 51.378962], [-0.100022, 51.37891], [-0.100011, 51.378851], [-0.099971, 51.378697], [-0.099908, 51.378489], [-0.099882, 51.378397], [-0.099777, 51.378427], [-0.099716, 51.378441], [-0.099637, 51.378464], [-0.099621, 51.378419], [-0.099569, 51.37831], [-0.099652, 51.378299], [-0.099833, 51.378273], [-0.099795, 51.378192], [-0.099706, 51.378014], [-0.099661, 51.377933], [-0.099592, 51.377826], [-0.099342, 51.377494], [-0.09923, 51.37735], [-0.099122, 51.377206], [-0.098949, 51.37697], [-0.099042, 51.376932], [-0.099075, 51.376919], [-0.099135, 51.376891], [-0.099146, 51.376882], [-0.099153, 51.376867], [-0.099147, 51.376851], [-0.099136, 51.376837], [-0.099147, 51.376851], [-0.099153, 51.376867], [-0.099146, 51.376882], [-0.099135, 51.376891], [-0.099075, 51.376919], [-0.099042, 51.376932], [-0.098949, 51.37697], [-0.098486, 51.376325], [-0.098601, 51.376291], [-0.098627, 51.376284], [-0.099902, 51.37595], [-0.100156, 51.37587], [-0.099902, 51.37595], [-0.099966, 51.376042], [-0.100093, 51.376225], [-0.100607, 51.376961], [-0.100777, 51.376913], [-0.100897, 51.376881], [-0.10124, 51.376772], [-0.101659, 51.376648], [-0.101646, 51.376628], [-0.101621, 51.376589], [-0.101545, 51.376468], [-0.101537, 51.376455], [-0.101489, 51.376385], [-0.101459, 51.376341], [-0.101395, 51.376233], [-0.101345, 51.376142], [-0.101325, 51.376075], [-0.101308, 51.376013], [-0.101305, 51.376003], [-0.101229, 51.375773], [-0.101209, 51.375729], [-0.100964, 51.375287], [-0.100917, 51.375217], [-0.100828, 51.37517], [-0.10073, 51.37516], [-0.100725, 51.37516], [-0.100669, 51.375169], [-0.100642, 51.375129], [-0.101003, 51.375051], [-0.100995, 51.375036], [-0.100926, 51.374893], [-0.10099, 51.374881], [-0.100971, 51.374837], [-0.101023, 51.374827], [-0.100985, 51.374743], [-0.100939, 51.374752], [-0.100863, 51.374596], [-0.100719, 51.374297], [-0.100762, 51.374287], [-0.100627, 51.374034], [-0.100613, 51.374008], [-0.10061, 51.374003], [-0.100607, 51.373996], [-0.100603, 51.37399], [-0.1006, 51.373985], [-0.100525, 51.373844], [-0.100531, 51.373819], [-0.100541, 51.373799], [-0.100566, 51.37378], [-0.100609, 51.373767], [-0.1007, 51.373751], [-0.100859, 51.373723], [-0.101081, 51.373684], [-0.101088, 51.373683], [-0.101079, 51.373671], [-0.101049, 51.373661], [-0.101035, 51.373652], [-0.10103, 51.373648], [-0.101094, 51.373637], [-0.101059, 51.373546], [-0.101055, 51.373506], [-0.101492, 51.373424], [-0.101633, 51.373398], [-0.101553, 51.373273], [-0.101276, 51.372873], [-0.101853, 51.372764], [-0.101861, 51.372762], [-0.101853, 51.372764], [-0.101276, 51.372873], [-0.101119, 51.37262], [-0.101092, 51.372581], [-0.101034, 51.372499], [-0.101212, 51.372456], [-0.10122, 51.372471], [-0.101383, 51.372429], [-0.101389, 51.372438], [-0.101501, 51.372408], [-0.10151, 51.372421], [-0.101691, 51.372372], [-0.101699, 51.372384], [-0.101959, 51.372314], [-0.101972, 51.372333], [-0.102002, 51.372324], [-0.102035, 51.372372], [-0.102299, 51.372302], [-0.102035, 51.372372], [-0.102002, 51.372324], [-0.101972, 51.372333], [-0.101959, 51.372314], [-0.101699, 51.372384], [-0.101691, 51.372372], [-0.10151, 51.372421], [-0.101501, 51.372408], [-0.101389, 51.372438], [-0.101383, 51.372429], [-0.10122, 51.372471], [-0.101212, 51.372456], [-0.101205, 51.372445], [-0.101193, 51.372425], [-0.101281, 51.3724], [-0.101243, 51.372326], [-0.101109, 51.372358], [-0.100969, 51.372391], [-0.100749, 51.372025], [-0.100606, 51.371787], [-0.100608, 51.37176], [-0.100602, 51.371747], [-0.10058, 51.371735], [-0.100542, 51.371724], [-0.100525, 51.371712], [-0.100514, 51.371681], [-0.100493, 51.37167], [-0.100467, 51.371647], [-0.10047, 51.371637], [-0.100477, 51.371584], [-0.100472, 51.371554], [-0.100467, 51.37153], [-0.100416, 51.371494], [-0.100383, 51.371392], [-0.100348, 51.371291], [-0.100322, 51.371227], [-0.100266, 51.371085], [-0.100255, 51.371059], [-0.100266, 51.371085], [-0.100322, 51.371227], [-0.100348, 51.371291], [-0.100383, 51.371392], [-0.100416, 51.371494], [-0.100388, 51.37154], [-0.100391, 51.371563], [-0.100396, 51.371588], [-0.100399, 51.371596], [-0.100403, 51.371644], [-0.100424, 51.371691], [-0.100424, 51.371716], [-0.100421, 51.371749], [-0.100409, 51.371792], [-0.100396, 51.371842], [-0.100394, 51.371922], [-0.100405, 51.371985], [-0.100366, 51.372307], [-0.100349, 51.372329], [-0.100312, 51.37235], [-0.100275, 51.372358], [-0.100252, 51.372361], [-0.100186, 51.372367], [-0.099933, 51.372369], [-0.099712, 51.372368], [-0.099197, 51.372374], [-0.09901, 51.372374]], "type": "LineString"}}]}