{"type": "FeatureCollection", "features": [{"type": "Feature", "properties": {"preset": "highlights", "distance_m": 2722, "duration_s": 2185, "source": "OSRM foot profile, routing.openstreetmap.de; \u00a9 OpenStreetMap contributors (ODbL)", "stop_order": ["david-lean", "heads-of-state-sgw", "peep-show-canterbury", "dark-knight-rises", "terry-and-june", "girl-group", "opalite", "matthews-yard", "konga", "finale"]}, "geometry": {"coordinates": [[-0.09901, 51.372374], [-0.098903, 51.372374], [-0.098532, 51.372374], [-0.098532, 51.372642], [-0.098535, 51.372746], [-0.098541, 51.372902], [-0.098544, 51.373], [-0.09855, 51.373128], [-0.098563, 51.373198], [-0.098567, 51.37321], [-0.098582, 51.373255], [-0.098594, 51.373289], [-0.09856, 51.373336], [-0.098562, 51.373364], [-0.098597, 51.373447], [-0.098238, 51.37351], [-0.097854, 51.373566], [-0.097123, 51.373673], [-0.096991, 51.373691], [-0.096953, 51.373701], [-0.096943, 51.373705], [-0.096922, 51.373713], [-0.096888, 51.373729], [-0.09685, 51.373752], [-0.096806, 51.37378], [-0.096771, 51.373806], [-0.096757, 51.37382], [-0.096731, 51.373844], [-0.096699, 51.373879], [-0.096678, 51.373909], [-0.09666, 51.373949], [-0.096635, 51.374015], [-0.096626, 51.374068], [-0.096572, 51.374093], [-0.096589, 51.374114], [-0.096596, 51.374136], [-0.096564, 51.37414], [-0.09657, 51.374158], [-0.096575, 51.374178], [-0.096587, 51.374219], [-0.096592, 51.374236], [-0.096666, 51.374284], [-0.09665, 51.374299], [-0.096628, 51.37432], [-0.09661, 51.374338], [-0.096589, 51.374357], [-0.096637, 51.374386], [-0.096677, 51.374423], [-0.096705, 51.374461], [-0.096903, 51.374731], [-0.09695, 51.37478], [-0.097319, 51.375294], [-0.097346, 51.375351], [-0.097385, 51.375376], [-0.097622, 51.375695], [-0.09762, 51.37573], [-0.09774, 51.3759], [-0.09776, 51.375942], [-0.097764, 51.375949], [-0.09796, 51.376213], [-0.098002, 51.376251], [-0.098029, 51.376275], [-0.098051, 51.376293], [-0.098105, 51.376355], [-0.098131, 51.376366], [-0.098187, 51.376388], [-0.098197, 51.376393], [-0.098236, 51.37641], [-0.098318, 51.376511], [-0.098392, 51.376608], [-0.098447, 51.376679], [-0.098885, 51.377283], [-0.098949, 51.377383], [-0.098957, 51.377425], [-0.098954, 51.377443], [-0.09895, 51.377455], [-0.098941, 51.37747], [-0.098928, 51.377484], [-0.098909, 51.377498], [-0.098883, 51.377515], [-0.098869, 51.377523], [-0.09885, 51.377532], [-0.098835, 51.377537], [-0.098814, 51.377544], [-0.098639, 51.377593], [-0.098323, 51.377684], [-0.098126, 51.377744], [-0.097717, 51.377863], [-0.098126, 51.377744], [-0.098323, 51.377684], [-0.098639, 51.377593], [-0.098814, 51.377544], [-0.098835, 51.377537], [-0.09885, 51.377532], [-0.098869, 51.377523], [-0.098883, 51.377515], [-0.098909, 51.377498], [-0.098928, 51.377484], [-0.098941, 51.37747], [-0.09895, 51.377455], [-0.098954, 51.377443], [-0.098957, 51.377425], [-0.098949, 51.377383], [-0.098988, 51.377418], [-0.099124, 51.377597], [-0.099283, 51.377803], [-0.099335, 51.377874], [-0.099375, 51.377939], [-0.099413, 51.378002], [-0.099444, 51.378059], [-0.099505, 51.378178], [-0.099569, 51.37831], [-0.099621, 51.378419], [-0.099637, 51.378464], [-0.099716, 51.378441], [-0.099777, 51.378427], [-0.099882, 51.378397], [-0.099908, 51.378489], [-0.099971, 51.378697], [-0.100011, 51.378851], [-0.100022, 51.37891], [-0.100029, 51.378962], [-0.100034, 51.379018], [-0.100037, 51.379079], [-0.100034, 51.379018], [-0.100029, 51.378962], [-0.100022, 51.37891], [-0.100011, 51.378851], [-0.099971, 51.378697], [-0.099908, 51.378489], [-0.099882, 51.378397], [-0.099777, 51.378427], [-0.099716, 51.378441], [-0.099637, 51.378464], [-0.099621, 51.378419], [-0.099569, 51.37831], [-0.099652, 51.378299], [-0.099833, 51.378273], [-0.099795, 51.378192], [-0.099706, 51.378014], [-0.099661, 51.377933], [-0.099592, 51.377826], [-0.099342, 51.377494], [-0.09923, 51.37735], [-0.099122, 51.377206], [-0.098949, 51.37697], [-0.099042, 51.376932], [-0.099075, 51.376919], [-0.099135, 51.376891], [-0.099146, 51.376882], [-0.099153, 51.376867], [-0.099147, 51.376851], [-0.099136, 51.376837], [-0.099147, 51.376851], [-0.099153, 51.376867], [-0.099146, 51.376882], [-0.099135, 51.376891], [-0.099075, 51.376919], [-0.099042, 51.376932], [-0.098949, 51.37697], [-0.099122, 51.377206], [-0.09923, 51.37735], [-0.099886, 51.377167], [-0.100022, 51.377127], [-0.100033, 51.377124], [-0.100607, 51.376961], [-0.100093, 51.376225], [-0.099966, 51.376042], [-0.099902, 51.37595], [-0.100156, 51.37587], [-0.100272, 51.375833], [-0.100346, 51.375684], [-0.100108, 51.375341], [-0.100077, 51.375286], [-0.100216, 51.375244], [-0.100642, 51.375129], [-0.100602, 51.375071], [-0.100613, 51.375069], [-0.100668, 51.375054], [-0.100712, 51.375032], [-0.100715, 51.37503], [-0.100769, 51.374994], [-0.100777, 51.374945], [-0.100775, 51.374942], [-0.100738, 51.374868], [-0.100684, 51.374772], [-0.100633, 51.374673], [-0.100491, 51.374387], [-0.100666, 51.374352], [-0.100503, 51.374012], [-0.100372, 51.373757], [-0.100353, 51.373716], [-0.100357, 51.373689], [-0.100351, 51.373613], [-0.100349, 51.373594], [-0.100346, 51.373555], [-0.100341, 51.373528], [-0.100339, 51.373387], [-0.100335, 51.373347], [-0.100327, 51.373293], [-0.100326, 51.373234], [-0.100323, 51.373223], [-0.10041, 51.373223], [-0.10041, 51.373169], [-0.100397, 51.3729], [-0.100417, 51.372735], [-0.100426, 51.372675], [-0.100745, 51.37269], [-0.100804, 51.372682], [-0.100812, 51.372699], [-0.100962, 51.372663], [-0.101119, 51.37262], [-0.101092, 51.372581], [-0.101034, 51.372499], [-0.100969, 51.372391], [-0.101109, 51.372358], [-0.100969, 51.372391], [-0.100749, 51.372025], [-0.100606, 51.371787], [-0.100608, 51.37176], [-0.100602, 51.371747], [-0.10058, 51.371735], [-0.100542, 51.371724], [-0.100525, 51.371712], [-0.100514, 51.371681], [-0.100493, 51.37167], [-0.100467, 51.371647], [-0.10047, 51.371637], [-0.100477, 51.371584], [-0.100472, 51.371554], [-0.100467, 51.37153], [-0.100416, 51.371494], [-0.100383, 51.371392], [-0.100348, 51.371291], [-0.100322, 51.371227], [-0.100266, 51.371085], [-0.100255, 51.371059], [-0.100266, 51.371085], [-0.100322, 51.371227], [-0.100348, 51.371291], [-0.100383, 51.371392], [-0.100416, 51.371494], [-0.100388, 51.37154], [-0.100391, 51.371563], [-0.100396, 51.371588], [-0.100399, 51.371596], [-0.100403, 51.371644], [-0.100424, 51.371691], [-0.100424, 51.371716], [-0.100421, 51.371749], [-0.100409, 51.371792], [-0.100396, 51.371842], [-0.100394, 51.371922], [-0.100405, 51.371985], [-0.100366, 51.372307], [-0.100349, 51.372329], [-0.100312, 51.37235], [-0.100275, 51.372358], [-0.100252, 51.372361], [-0.100186, 51.372367], [-0.099933, 51.372369], [-0.099712, 51.372368], [-0.099197, 51.372374], [-0.09901, 51.372374]], "type": "LineString"}}]}