{"type": "FeatureCollection", "features": [{"type": "Feature", "properties": {"name": "Crollywood walking loop", "distance_m": 4274, "duration_s": 3422, "source": "OSRM foot profile, routing.openstreetmap.de; \u00a9 OpenStreetMap contributors (ODbL)", "stop_order": ["david-lean", "american-assassin", "the-bill", "heads-of-state-sgw", "made-in-dagenham", "fairfield-halls", "criminal-bourne", "velvet-goldmine", "man-who-knew-too-little", "peep-show-canterbury", "heads-of-state-apollo", "dark-knight-rises", "terry-and-june", "opalite", "girl-group", "it-crowd", "peep-show-loop-bar", "heads-of-state-overtons", "heads-of-state-carpark", "matthews-yard", "konga", "peep-show-registry", "finale"]}, "geometry": {"coordinates": [[-0.09901, 51.372374], [-0.098903, 51.372374], [-0.098532, 51.372374], [-0.098532, 51.372642], [-0.098535, 51.372746], [-0.098541, 51.3729], [-0.098541, 51.372902], [-0.098544, 51.373], [-0.09855, 51.373128], [-0.098563, 51.373198], [-0.098582, 51.373255], [-0.098594, 51.373289], [-0.098641, 51.373326], [-0.098649, 51.373352], [-0.098676, 51.373437], [-0.098712, 51.373438], [-0.098736, 51.373434], [-0.098874, 51.373403], [-0.099044, 51.373376], [-0.099365, 51.373322], [-0.099508, 51.3733], [-0.099582, 51.373286], [-0.099508, 51.3733], [-0.099365, 51.373322], [-0.099044, 51.373376], [-0.098874, 51.373403], [-0.098736, 51.373434], [-0.098712, 51.373438], [-0.098676, 51.373437], [-0.098649, 51.373352], [-0.098641, 51.373326], [-0.098594, 51.373289], [-0.098582, 51.373255], [-0.098567, 51.37321], [-0.098563, 51.373198], [-0.09855, 51.373128], [-0.098544, 51.373], [-0.098482, 51.373], [-0.098429, 51.373016], [-0.097729, 51.373117], [-0.097371, 51.373168], [-0.097063, 51.373213], [-0.097021, 51.373219], [-0.096964, 51.373226], [-0.096907, 51.373227], [-0.096863, 51.373227], [-0.096868, 51.372867], [-0.096871, 51.37282], [-0.096877, 51.372705], [-0.096895, 51.372684], [-0.096908, 51.372705], [-0.096908, 51.372777], [-0.096907, 51.372795], [-0.096263, 51.372804], [-0.096159, 51.372815], [-0.096189, 51.372926], [-0.096298, 51.372915], [-0.096321, 51.372915], [-0.096321, 51.372971], [-0.09622, 51.373034], [-0.096154, 51.373041], [-0.096107, 51.373045], [-0.09606, 51.37305], [-0.096027, 51.373054], [-0.09606, 51.37305], [-0.096107, 51.373045], [-0.096154, 51.373041], [-0.096281, 51.373686], [-0.096291, 51.373725], [-0.0963, 51.373762], [-0.096302, 51.373773], [-0.096363, 51.373778], [-0.096422, 51.373805], [-0.096447, 51.373828], [-0.096516, 51.374015], [-0.09652, 51.374041], [-0.09655, 51.374064], [-0.096572, 51.374093], [-0.096589, 51.374114], [-0.096596, 51.374136], [-0.096564, 51.37414], [-0.09657, 51.374158], [-0.096575, 51.374178], [-0.096587, 51.374219], [-0.096592, 51.374236], [-0.096666, 51.374284], [-0.096721, 51.374292], [-0.096742, 51.374287], [-0.096767, 51.374282], [-0.096883, 51.374285], [-0.097018, 51.374287], [-0.097063, 51.374277], [-0.097131, 51.374388], [-0.097222, 51.37452], [-0.09737, 51.374725], [-0.097558, 51.375001], [-0.097736, 51.375248], [-0.098004, 51.375602], [-0.098028, 51.375638], [-0.098036, 51.37565], [-0.098058, 51.375814], [-0.098375, 51.376174], [-0.098395, 51.3762], [-0.098307, 51.376226], [-0.098336, 51.376269], [-0.098284, 51.376281], [-0.098242, 51.376292], [-0.098212, 51.376254], [-0.09816, 51.376265], [-0.098051, 51.376293], [-0.098029, 51.376275], [-0.097958, 51.376297], [-0.097813, 51.376347], [-0.097739, 51.376363], [-0.097712, 51.37637], [-0.097451, 51.37644], [-0.097421, 51.376479], [-0.097337, 51.376501], [-0.09695, 51.376605], [-0.096833, 51.376636], [-0.096406, 51.37675], [-0.096169, 51.376814], [-0.095924, 51.37688], [-0.095906, 51.376884], [-0.095874, 51.376892], [-0.095853, 51.376898], [-0.095773, 51.37692], [-0.095696, 51.376935], [-0.095611, 51.376896], [-0.095564, 51.376891], [-0.095611, 51.376896], [-0.095696, 51.376935], [-0.095686, 51.377005], [-0.09563, 51.377058], [-0.09566, 51.37712], [-0.095673, 51.377144], [-0.095685, 51.377172], [-0.09569, 51.377187], [-0.095697, 51.377206], [-0.095717, 51.377272], [-0.095754, 51.377427], [-0.095767, 51.3775], [-0.095773, 51.37756], [-0.095777, 51.377714], [-0.095774, 51.377786], [-0.095768, 51.377839], [-0.095753, 51.377905], [-0.095698, 51.37806], [-0.095679, 51.378114], [-0.095651, 51.378188], [-0.095639, 51.378218], [-0.095598, 51.378353], [-0.095572, 51.378437], [-0.095712, 51.378464], [-0.095777, 51.378479], [-0.095816, 51.378486], [-0.095859, 51.378487], [-0.095884, 51.378487], [-0.095918, 51.378484], [-0.095964, 51.378477], [-0.096003, 51.378465], [-0.096888, 51.378105], [-0.097169, 51.378032], [-0.09736, 51.377967], [-0.097717, 51.377863], [-0.098126, 51.377744], [-0.098087, 51.377687], [-0.097923, 51.377447], [-0.098153, 51.377386], [-0.09803, 51.377207], [-0.098153, 51.377386], [-0.097923, 51.377447], [-0.098087, 51.377687], [-0.098126, 51.377744], [-0.098323, 51.377684], [-0.098639, 51.377593], [-0.098814, 51.377544], [-0.098835, 51.377537], [-0.09885, 51.377532], [-0.098869, 51.377523], [-0.098883, 51.377515], [-0.098909, 51.377498], [-0.098928, 51.377484], [-0.098941, 51.37747], [-0.09895, 51.377455], [-0.098954, 51.377443], [-0.098957, 51.377425], [-0.098949, 51.377383], [-0.098988, 51.377418], [-0.099124, 51.377597], [-0.099283, 51.377803], [-0.099335, 51.377874], [-0.099375, 51.377939], [-0.099413, 51.378002], [-0.099444, 51.378059], [-0.099505, 51.378178], [-0.099569, 51.37831], [-0.099621, 51.378419], [-0.099637, 51.378464], [-0.099716, 51.378441], [-0.099777, 51.378427], [-0.099882, 51.378397], [-0.099908, 51.378489], [-0.099971, 51.378697], [-0.100011, 51.378851], [-0.100022, 51.37891], [-0.100029, 51.378962], [-0.100034, 51.379018], [-0.100037, 51.379079], [-0.100034, 51.379018], [-0.100029, 51.378962], [-0.100022, 51.37891], [-0.100011, 51.378851], [-0.099971, 51.378697], [-0.099908, 51.378489], [-0.099882, 51.378397], [-0.099777, 51.378427], [-0.099716, 51.378441], [-0.099637, 51.378464], [-0.099621, 51.378419], [-0.099569, 51.37831], [-0.099652, 51.378299], [-0.099833, 51.378273], [-0.099795, 51.378192], [-0.099706, 51.378014], [-0.099661, 51.377933], [-0.099592, 51.377826], [-0.099342, 51.377494], [-0.09923, 51.37735], [-0.099122, 51.377206], [-0.098949, 51.37697], [-0.099042, 51.376932], [-0.099075, 51.376919], [-0.099135, 51.376891], [-0.099146, 51.376882], [-0.099153, 51.376867], [-0.099147, 51.376851], [-0.099136, 51.376837], [-0.099147, 51.376851], [-0.099153, 51.376867], [-0.099146, 51.376882], [-0.099135, 51.376891], [-0.099075, 51.376919], [-0.099042, 51.376932], [-0.098949, 51.37697], [-0.098486, 51.376325], [-0.098601, 51.376291], [-0.098627, 51.376284], [-0.099902, 51.37595], [-0.100156, 51.37587], [-0.099902, 51.37595], [-0.099966, 51.376042], [-0.100093, 51.376225], [-0.100607, 51.376961], [-0.100777, 51.376913], [-0.100897, 51.376881], [-0.10124, 51.376772], [-0.101659, 51.376648], [-0.101646, 51.376628], [-0.101621, 51.376589], [-0.101545, 51.376468], [-0.101537, 51.376455], [-0.101489, 51.376385], [-0.101459, 51.376341], [-0.101395, 51.376233], [-0.101345, 51.376142], [-0.101325, 51.376075], [-0.101308, 51.376013], [-0.101305, 51.376003], [-0.101229, 51.375773], [-0.101209, 51.375729], [-0.100964, 51.375287], [-0.100917, 51.375217], [-0.100828, 51.37517], [-0.10073, 51.37516], [-0.100725, 51.37516], [-0.100669, 51.375169], [-0.100642, 51.375129], [-0.101003, 51.375051], [-0.100995, 51.375036], [-0.100926, 51.374893], [-0.10099, 51.374881], [-0.100971, 51.374837], [-0.101023, 51.374827], [-0.100985, 51.374743], [-0.100939, 51.374752], [-0.100863, 51.374596], [-0.100719, 51.374297], [-0.100762, 51.374287], [-0.100627, 51.374034], [-0.100613, 51.374008], [-0.10061, 51.374003], [-0.100607, 51.373996], [-0.100603, 51.37399], [-0.1006, 51.373985], [-0.100525, 51.373844], [-0.100531, 51.373819], [-0.100541, 51.373799], [-0.100566, 51.37378], [-0.100609, 51.373767], [-0.1007, 51.373751], [-0.100859, 51.373723], [-0.101081, 51.373684], [-0.101088, 51.373683], [-0.101079, 51.373671], [-0.101049, 51.373661], [-0.101035, 51.373652], [-0.10103, 51.373648], [-0.101094, 51.373637], [-0.101227, 51.373614], [-0.101263, 51.373676], [-0.101289, 51.373719], [-0.101263, 51.373676], [-0.101227, 51.373614], [-0.101472, 51.373573], [-0.101717, 51.373542], [-0.101633, 51.373398], [-0.101553, 51.373273], [-0.101276, 51.372873], [-0.101853, 51.372764], [-0.101861, 51.372762], [-0.101853, 51.372764], [-0.101276, 51.372873], [-0.101119, 51.37262], [-0.101092, 51.372581], [-0.101034, 51.372499], [-0.101212, 51.372456], [-0.10122, 51.372471], [-0.101383, 51.372429], [-0.101389, 51.372438], [-0.101501, 51.372408], [-0.10151, 51.372421], [-0.101691, 51.372372], [-0.101699, 51.372384], [-0.101959, 51.372314], [-0.101972, 51.372333], [-0.102002, 51.372324], [-0.102035, 51.372372], [-0.102299, 51.372302], [-0.102035, 51.372372], [-0.102002, 51.372324], [-0.101972, 51.372333], [-0.101959, 51.372314], [-0.101699, 51.372384], [-0.101691, 51.372372], [-0.10151, 51.372421], [-0.101501, 51.372408], [-0.101389, 51.372438], [-0.101383, 51.372429], [-0.10122, 51.372471], [-0.101212, 51.372456], [-0.101205, 51.372445], [-0.101193, 51.372425], [-0.101281, 51.3724], [-0.101243, 51.372326], [-0.101109, 51.372358], [-0.100969, 51.372391], [-0.100749, 51.372025], [-0.100606, 51.371787], [-0.100608, 51.37176], [-0.100602, 51.371747], [-0.10058, 51.371735], [-0.100542, 51.371724], [-0.100525, 51.371712], [-0.100514, 51.371681], [-0.100493, 51.37167], [-0.100467, 51.371647], [-0.10047, 51.371637], [-0.100477, 51.371584], [-0.100472, 51.371554], [-0.100467, 51.37153], [-0.100416, 51.371494], [-0.100383, 51.371392], [-0.100348, 51.371291], [-0.100322, 51.371227], [-0.100266, 51.371085], [-0.100255, 51.371059], [-0.100266, 51.371085], [-0.100322, 51.371227], [-0.100348, 51.371291], [-0.100383, 51.371392], [-0.100416, 51.371494], [-0.100388, 51.37154], [-0.100391, 51.371563], [-0.100396, 51.371588], [-0.100399, 51.371596], [-0.100403, 51.371644], [-0.100373, 51.371642], [-0.100337, 51.371643], [-0.10002, 51.371671], [-0.100004, 51.371673], [-0.10002, 51.371671], [-0.100337, 51.371643], [-0.100373, 51.371642], [-0.100403, 51.371644], [-0.100424, 51.371691], [-0.100424, 51.371716], [-0.100421, 51.371749], [-0.100409, 51.371792], [-0.100396, 51.371842], [-0.100394, 51.371922], [-0.100405, 51.371985], [-0.100366, 51.372307], [-0.100349, 51.372329], [-0.100312, 51.37235], [-0.100275, 51.372358], [-0.100252, 51.372361], [-0.100186, 51.372367], [-0.099933, 51.372369], [-0.099712, 51.372368], [-0.099197, 51.372374], [-0.09901, 51.372374]], "type": "LineString"}}]}